[{"OBJECT_NAME":"STARLINK-31751","OBJECT_ID":"2024-076L","EPOCH":"2026-03-09T06:17:50.336160","MEAN_MOTION":15.27577347,"ECCENTRICITY":9.766e-5,"INCLINATION":43.0006,"RA_OF_ASC_NODE":11.7415,"ARG_OF_PERICENTER":263.6594,"MEAN_ANOMALY":96.4146,"EPHEMERIS_TYPE":0,"CLASSIFICATION_TYPE":"U","NORAD_CAT_ID":59574,"ELEMENT_SET_NO":999,"REV_AT_EPOCH":10643,"BSTAR":-7.98677e-5,"MEAN_MOTION_DOT":-2.459e-5,"MEAN_MOTION_DDOT":0},{"OBJECT_NAME":"OBJECT M","OBJECT_ID":"2024-205M","EPOCH":"2026-03-09T22:23:47.520096","MEAN_MOTION":15.27663844,"ECCENTRICITY":0.00036602,"INCLINATION":97.3915,"RA_OF_ASC_NODE":144.193,"ARG_OF_PERICENTER":310.2554,"MEAN_ANOMALY":49.8364,"EPHEMERIS_TYPE":0,"CLASSIFICATION_TYPE":"U","NORAD_CAT_ID":61905,"ELEMENT_SET_NO":999,"REV_AT_EPOCH":7334,"BSTAR":0.00036391974,"MEAN_MOTION_DOT":9.771e-5,"MEAN_MOTION_DDOT":0}]
